ERS-1                   
1 21574U 91050A   26074.95331481  .00000287  00000+0  10637-3 0  9993
2 21574  98.7876  93.3453 0031970 181.7645 178.3434 14.39454276816634
ARIANE 40 R/B           
1 21610U 91050F   26074.85067401  .00000278  00000+0  95584-4 0  9996
2 21610  98.1999 126.8556 0004177  67.8415 292.3219 14.42898238819881
INTERCOSMOS 25          
1 21819U 91086A   26074.93164305  .00001842  00000+0  35385-3 0  9996
2 21819  82.6043 306.2355 1486845 103.4877 273.5747 12.12022605497440
SL-8 R/B                
1 21876U 92008B   26074.91269485  .00000013  00000+0 -26877-5 0  9995
2 21876  82.9221 263.1477 0035769 116.4801 353.8601 13.75969765710272
SL-8 R/B                
1 21938U 92020B   26074.97042317  .00000048  00000+0  33887-4 0  9992
2 21938  82.9327 149.0989 0027561 280.4570 252.6562 13.75549992701991
USA 81                  
1 21949U 92023A   26074.87613814  .00000169  00000+0  55280-4 0  9997
2 21949  85.0072 127.8719 0002297  72.5426 287.6017 14.32369994 95678
COSMOS 2219             
1 22219U 92076A   26074.95815767 -.00000051  00000+0 -20466-5 0  9997
2 22219  71.0641   4.9651 0018620 198.3267 161.7187 14.14093734719267
SL-16 R/B               
1 22220U 92076B   26075.00180008  .00000052  00000+0  49809-4 0  9999
2 22220  71.0006 175.0784 0010555  84.6961  87.8480 14.16859236722726
COSMOS 2221             
1 22236U 92080A   26074.92382474  .00001493  00000+0  12982-3 0  9993
2 22236  82.5003 273.1081 0014585 166.2585 193.9037 14.96226464781724
SL-16 R/B               
1 22285U 92093B   26074.95847744  .00000023  00000+0  36101-4 0  9998
2 22285  71.0241 351.1073 0006298 287.2827  72.7607 14.15447161714046
COSMOS 2228             
1 22286U 92094A   26074.93603806  .00002023  00000+0  17222-3 0  9991
2 22286  82.5161 231.3291 0016591 281.7838  78.1523 14.97224096776993
SL-16 R/B               
1 22566U 93016B   26074.78747463 -.00000176  00000+0 -65727-4 0  9991
2 22566  71.0083 202.3743 0012194 306.1756  53.8238 14.15308958703034
