CCSDS_OMM_VERS = 2.0
CREATION_DATE  = 
ORIGINATOR     = 

OBJECT_NAME    = ERS-1
OBJECT_ID      = 1991-050A
CENTER_NAME    = EARTH
REF_FRAME      = TEME
TIME_SYSTEM    = UTC
MEAN_ELEMENT_THEORY = SGP/SGP4

EPOCH          = 2026-03-15T22:52:46.399584
MEAN_MOTION    = 14.39454276
ECCENTRICITY   = .00319704
INCLINATION    = 98.7876
RA_OF_ASC_NODE = 93.3453
ARG_OF_PERICENTER = 181.7645
MEAN_ANOMALY   = 178.3434

EPHEMERIS_TYPE = 0
CLASSIFICATION_TYPE = U
NORAD_CAT_ID   = 21574
ELEMENT_SET_NO = 999
REV_AT_EPOCH   = 81663
BSTAR          = .10636501E-3
MEAN_MOTION_DOT = .287E-5
MEAN_MOTION_DDOT = 0

CCSDS_OMM_VERS = 2.0
CREATION_DATE  = 
ORIGINATOR     = 

OBJECT_NAME    = ARIANE 40 R/B
OBJECT_ID      = 1991-050F
CENTER_NAME    = EARTH
REF_FRAME      = TEME
TIME_SYSTEM    = UTC
MEAN_ELEMENT_THEORY = SGP/SGP4

EPOCH          = 2026-03-15T20:24:58.234464
MEAN_MOTION    = 14.42898238
ECCENTRICITY   = .0004177
INCLINATION    = 98.1999
RA_OF_ASC_NODE = 126.8556
ARG_OF_PERICENTER = 67.8415
MEAN_ANOMALY   = 292.3219

EPHEMERIS_TYPE = 0
CLASSIFICATION_TYPE = U
NORAD_CAT_ID   = 21610
ELEMENT_SET_NO = 999
REV_AT_EPOCH   = 81988
BSTAR          = .95584281E-4
MEAN_MOTION_DOT = .278E-5
MEAN_MOTION_DDOT = 0

CCSDS_OMM_VERS = 2.0
CREATION_DATE  = 
ORIGINATOR     = 

OBJECT_NAME    = INTERCOSMOS 25
OBJECT_ID      = 1991-086A
CENTER_NAME    = EARTH
REF_FRAME      = TEME
TIME_SYSTEM    = UTC
MEAN_ELEMENT_THEORY = SGP/SGP4

EPOCH          = 2026-03-15T22:21:33.959520
MEAN_MOTION    = 12.12022605
ECCENTRICITY   = .14868456
INCLINATION    = 82.6043
RA_OF_ASC_NODE = 306.2355
ARG_OF_PERICENTER = 103.4877
MEAN_ANOMALY   = 273.5747

EPHEMERIS_TYPE = 0
CLASSIFICATION_TYPE = U
NORAD_CAT_ID   = 21819
ELEMENT_SET_NO = 999
REV_AT_EPOCH   = 49744
BSTAR          = .353849E-3
MEAN_MOTION_DOT = .1842E-4
MEAN_MOTION_DDOT = 0

CCSDS_OMM_VERS = 2.0
CREATION_DATE  = 
ORIGINATOR     = 

OBJECT_NAME    = SL-8 R/B
OBJECT_ID      = 1992-008B
CENTER_NAME    = EARTH
REF_FRAME      = TEME
TIME_SYSTEM    = UTC
MEAN_ELEMENT_THEORY = SGP/SGP4

EPOCH          = 2026-03-15T21:54:16.835040
MEAN_MOTION    = 13.75969765
ECCENTRICITY   = .00357695
INCLINATION    = 82.9221
RA_OF_ASC_NODE = 263.1477
ARG_OF_PERICENTER = 116.4801
MEAN_ANOMALY   = 353.8601

EPHEMERIS_TYPE = 0
CLASSIFICATION_TYPE = U
NORAD_CAT_ID   = 21876
ELEMENT_SET_NO = 999
REV_AT_EPOCH   = 71027
BSTAR          = -.2687719E-5
MEAN_MOTION_DOT = .13E-6
MEAN_MOTION_DDOT = 0

CCSDS_OMM_VERS = 2.0
CREATION_DATE  = 
ORIGINATOR     = 

OBJECT_NAME    = SL-8 R/B
OBJECT_ID      = 1992-020B
CENTER_NAME    = EARTH
REF_FRAME      = TEME
TIME_SYSTEM    = UTC
MEAN_ELEMENT_THEORY = SGP/SGP4

EPOCH          = 2026-03-15T23:17:24.561888
MEAN_MOTION    = 13.75549992
ECCENTRICITY   = .00275618
INCLINATION    = 82.9327
RA_OF_ASC_NODE = 149.0989
ARG_OF_PERICENTER = 280.4570
MEAN_ANOMALY   = 252.6562

EPHEMERIS_TYPE = 0
CLASSIFICATION_TYPE = U
NORAD_CAT_ID   = 21938
ELEMENT_SET_NO = 999
REV_AT_EPOCH   = 70199
BSTAR          = .33887087E-4
MEAN_MOTION_DOT = .48E-6
MEAN_MOTION_DDOT = 0

CCSDS_OMM_VERS = 2.0
CREATION_DATE  = 
ORIGINATOR     = 

OBJECT_NAME    = USA 81
OBJECT_ID      = 1992-023A
CENTER_NAME    = EARTH
REF_FRAME      = TEME
TIME_SYSTEM    = UTC
MEAN_ELEMENT_THEORY = SGP/SGP4

EPOCH          = 2026-03-15T21:01:38.335296
MEAN_MOTION    = 14.32369994
ECCENTRICITY   = .00022976
INCLINATION    = 85.0072
RA_OF_ASC_NODE = 127.8719
ARG_OF_PERICENTER = 72.5426
MEAN_ANOMALY   = 287.6017

EPHEMERIS_TYPE = 0
CLASSIFICATION_TYPE = U
NORAD_CAT_ID   = 21949
ELEMENT_SET_NO = 999
REV_AT_EPOCH   = 9567
BSTAR          = .55279731E-4
MEAN_MOTION_DOT = .169E-5
MEAN_MOTION_DDOT = 0

CCSDS_OMM_VERS = 2.0
CREATION_DATE  = 
ORIGINATOR     = 

OBJECT_NAME    = COSMOS 2219
OBJECT_ID      = 1992-076A
CENTER_NAME    = EARTH
REF_FRAME      = TEME
TIME_SYSTEM    = UTC
MEAN_ELEMENT_THEORY = SGP/SGP4

EPOCH          = 2026-03-15T22:59:44.822688
MEAN_MOTION    = 14.14093734
ECCENTRICITY   = .00186204
INCLINATION    = 71.0641
RA_OF_ASC_NODE = 4.9651
ARG_OF_PERICENTER = 198.3267
MEAN_ANOMALY   = 161.7187

EPHEMERIS_TYPE = 0
CLASSIFICATION_TYPE = U
NORAD_CAT_ID   = 22219
ELEMENT_SET_NO = 999
REV_AT_EPOCH   = 71926
BSTAR          = -.2046648E-5
MEAN_MOTION_DOT = -.51E-6
MEAN_MOTION_DDOT = 0

CCSDS_OMM_VERS = 2.0
CREATION_DATE  = 
ORIGINATOR     = 

OBJECT_NAME    = SL-16 R/B
OBJECT_ID      = 1992-076B
CENTER_NAME    = EARTH
REF_FRAME      = TEME
TIME_SYSTEM    = UTC
MEAN_ELEMENT_THEORY = SGP/SGP4

EPOCH          = 2026-03-16T00:02:35.526912
MEAN_MOTION    = 14.16859236
ECCENTRICITY   = .00105551
INCLINATION    = 71.0006
RA_OF_ASC_NODE = 175.0784
ARG_OF_PERICENTER = 84.6961
MEAN_ANOMALY   = 87.8480

EPHEMERIS_TYPE = 0
CLASSIFICATION_TYPE = U
NORAD_CAT_ID   = 22220
ELEMENT_SET_NO = 999
REV_AT_EPOCH   = 72272
BSTAR          = .49808821E-4
MEAN_MOTION_DOT = .52E-6
MEAN_MOTION_DDOT = 0

CCSDS_OMM_VERS = 2.0
CREATION_DATE  = 
ORIGINATOR     = 

OBJECT_NAME    = COSMOS 2221
OBJECT_ID      = 1992-080A
CENTER_NAME    = EARTH
REF_FRAME      = TEME
TIME_SYSTEM    = UTC
MEAN_ELEMENT_THEORY = SGP/SGP4

EPOCH          = 2026-03-15T22:10:18.457536
MEAN_MOTION    = 14.96226464
ECCENTRICITY   = .00145851
INCLINATION    = 82.5003
RA_OF_ASC_NODE = 273.1081
ARG_OF_PERICENTER = 166.2585
MEAN_ANOMALY   = 193.9037

EPHEMERIS_TYPE = 0
CLASSIFICATION_TYPE = U
NORAD_CAT_ID   = 22236
ELEMENT_SET_NO = 999
REV_AT_EPOCH   = 78172
BSTAR          = .12982144E-3
MEAN_MOTION_DOT = .1493E-4
MEAN_MOTION_DDOT = 0

CCSDS_OMM_VERS = 2.0
CREATION_DATE  = 
ORIGINATOR     = 

OBJECT_NAME    = SL-16 R/B
OBJECT_ID      = 1992-093B
CENTER_NAME    = EARTH
REF_FRAME      = TEME
TIME_SYSTEM    = UTC
MEAN_ELEMENT_THEORY = SGP/SGP4

EPOCH          = 2026-03-15T23:00:12.450816
MEAN_MOTION    = 14.15447161
ECCENTRICITY   = .00062981
INCLINATION    = 71.0241
RA_OF_ASC_NODE = 351.1073
ARG_OF_PERICENTER = 287.2827
MEAN_ANOMALY   = 72.7607

EPHEMERIS_TYPE = 0
CLASSIFICATION_TYPE = U
NORAD_CAT_ID   = 22285
ELEMENT_SET_NO = 999
REV_AT_EPOCH   = 71404
BSTAR          = .36100541E-4
MEAN_MOTION_DOT = .23E-6
MEAN_MOTION_DDOT = 0

CCSDS_OMM_VERS = 2.0
CREATION_DATE  = 
ORIGINATOR     = 

OBJECT_NAME    = COSMOS 2228
OBJECT_ID      = 1992-094A
CENTER_NAME    = EARTH
REF_FRAME      = TEME
TIME_SYSTEM    = UTC
MEAN_ELEMENT_THEORY = SGP/SGP4

EPOCH          = 2026-03-15T22:27:53.688384
MEAN_MOTION    = 14.97224096
ECCENTRICITY   = .00165911
INCLINATION    = 82.5161
RA_OF_ASC_NODE = 231.3291
ARG_OF_PERICENTER = 281.7838
MEAN_ANOMALY   = 78.1523

EPHEMERIS_TYPE = 0
CLASSIFICATION_TYPE = U
NORAD_CAT_ID   = 22286
ELEMENT_SET_NO = 999
REV_AT_EPOCH   = 77699
BSTAR          = .17222369E-3
MEAN_MOTION_DOT = .2023E-4
MEAN_MOTION_DDOT = 0

CCSDS_OMM_VERS = 2.0
CREATION_DATE  = 
ORIGINATOR     = 

OBJECT_NAME    = SL-16 R/B
OBJECT_ID      = 1993-016B
CENTER_NAME    = EARTH
REF_FRAME      = TEME
TIME_SYSTEM    = UTC
MEAN_ELEMENT_THEORY = SGP/SGP4

EPOCH          = 2026-03-15T18:53:57.808032
MEAN_MOTION    = 14.15308958
ECCENTRICITY   = .00121944
INCLINATION    = 71.0083
RA_OF_ASC_NODE = 202.3743
ARG_OF_PERICENTER = 306.1756
MEAN_ANOMALY   = 53.8238

EPHEMERIS_TYPE = 0
CLASSIFICATION_TYPE = U
NORAD_CAT_ID   = 22566
ELEMENT_SET_NO = 999
REV_AT_EPOCH   = 70303
BSTAR          = -.65727065E-4
MEAN_MOTION_DOT = -.176E-5
MEAN_MOTION_DDOT = 0

